1 37673U 11024A   13312.67481899  .00000639  00000-0  10883-3 0  9997
2 37673 098.0127 318.0510 0001307 103.7869 030.5834 14.72333705129783
